{"type": "FeatureCollection", "features": [ {"type": "Feature", "properties": {"norad_id": 31443, "name": "FENGYUN 1C DEB", "group": "fengyun-1c-debris", "lat": -46.04928354656069, "lon": -105.05182231073572, "alt_km": 811.7980211910663, "timestamp": "2025-12-11T07:02:24.012854+00:00", "meta": {"OBJECT_NAME": "FENGYUN 1C DEB", "OBJECT_ID": "1999-025BUF", "EPOCH": "2025-12-07T12:29:55.144032", "MEAN_MOTION": 14.48576855, "ECCENTRICITY": 0.01922111, "INCLINATION": 99.2106, "RA_OF_ASC_NODE": 80.5241, "ARG_OF_PERICENTER": 113.7036, "MEAN_ANOMALY": 248.4452, "EPHEMERIS_TYPE": 0, "CLASSIFICATION_TYPE": "U", "NORAD_CAT_ID": 31443, "ELEMENT_SET_NO": 999, "REV_AT_EPOCH": 66866, "BSTAR": 0.0023218128, "MEAN_MOTION_DOT": 0.00010992, "MEAN_MOTION_DDOT": 0}, "tle": {"line1": "1 31443U 99025BUF 25341.52077713  .00010992  00000+0  23218-2 0  9995", "line2": "2 31443  99.2106  80.5241 0192211 113.7036 248.4452 14.48576855668665"}}, "geometry": {"type": "Point", "coordinates": [-105.05182231073572, -46.04928354656069]}}, {"type": "Feature", "properties": {"norad_id": 31444, "name": "FENGYUN 1C DEB", "group": "fengyun-1c-debris", "lat": 79.83330518817687, "lon": -134.03677778749946, "alt_km": 610.5091187531561, "timestamp": "2025-12-11T07:02:24.012864+00:00", "meta": {"OBJECT_NAME": "FENGYUN 1C DEB", "OBJECT_ID": "1999-025BUG", "EPOCH": "2025-12-08T13:18:21.037824", "MEAN_MOTION": 14.69793542, "ECCENTRICITY": 0.0062632, "INCLINATION": 98.9278, "RA_OF_ASC_NODE": 284.2035, "ARG_OF_PERICENTER": 85.0243, "MEAN_ANOMALY": 275.8106, "EPHEMERIS_TYPE": 0, "CLASSIFICATION_TYPE": "U", "NORAD_CAT_ID": 31444, "ELEMENT_SET_NO": 999, "REV_AT_EPOCH": 97427, "BSTAR": 0.0020662, "MEAN_MOTION_DOT": 0.0001267, "MEAN_MOTION_DDOT": 0}, "tle": {"line1": "1 31444U 99025BUG 25342.55441016  .00012670  00000+0  20662-2 0  9996", "line2": "2 31444  98.9278 284.2035 0062632  85.0243 275.8106 14.69793542974274"}}, "geometry": {"type": "Point", "coordinates": [-134.03677778749946, 79.83330518817687]}}, {"type": "Feature", "properties": {"norad_id": 31447, "name": "FENGYUN 1C DEB", "group": "fengyun-1c-debris", "lat": 2.607223751377879, "lon": 26.09910021203336, "alt_km": 648.8655813480182, "timestamp": "2025-12-11T07:02:24.012874+00:00", "meta": {"OBJECT_NAME": "FENGYUN 1C DEB", "OBJECT_ID": "1999-025BUK", "EPOCH": "2025-12-08T20:00:32.884416", "MEAN_MOTION": 14.24029872, "ECCENTRICITY": 0.02304586, "INCLINATION": 98.9916, "RA_OF_ASC_NODE": 23.9949, "ARG_OF_PERICENTER": 6.4135, "MEAN_ANOMALY": 353.9906, "EPHEMERIS_TYPE": 0, "CLASSIFICATION_TYPE": "U", "NORAD_CAT_ID": 31447, "ELEMENT_SET_NO": 999, "REV_AT_EPOCH": 64796, "BSTAR": 0.00031342384, "MEAN_MOTION_DOT": 8.95e-06, "MEAN_MOTION_DDOT": 0}, "tle": {"line1": "1 31447U 99025BUK 25342.83371394  .00000895  00000+0  31342-3 0  9995", "line2": "2 31447  98.9916  23.9949 0230458   6.4135 353.9906 14.24029872647966"}}, "geometry": {"type": "Point", "coordinates": [26.09910021203336, 2.607223751377879]}}, {"type": "Feature", "properties": {"norad_id": 31448, "name": "FENGYUN 1C DEB", "group": "fengyun-1c-debris", "lat": -1.7985033935616657, "lon": -3.10731886263698, "alt_km": 838.639545794078, "timestamp": "2025-12-11T07:02:24.012885+00:00", "meta": {"OBJECT_NAME": "FENGYUN 1C DEB", "OBJECT_ID": "1999-025BUL", "EPOCH": "2025-12-08T18:30:03.962016", "MEAN_MOTION": 14.27794903, "ECCENTRICITY": 0.00587895, "INCLINATION": 98.5002, "RA_OF_ASC_NODE": 354.1694, "ARG_OF_PERICENTER": 215.8716, "MEAN_ANOMALY": 143.8511, "EPHEMERIS_TYPE": 0, "CLASSIFICATION_TYPE": "U", "NORAD_CAT_ID": 31448, "ELEMENT_SET_NO": 999, "REV_AT_EPOCH": 64247, "BSTAR": 0.0012322494, "MEAN_MOTION_DOT": 3.059e-05, "MEAN_MOTION_DDOT": 0}, "tle": {"line1": "1 31448U 99025BUL 25342.77087919  .00003059  00000+0  12322-2 0  9997", "line2": "2 31448  98.5002 354.1694 0058789 215.8716 143.8511 14.27794903642477"}}, "geometry": {"type": "Point", "coordinates": [-3.10731886263698, -1.7985033935616657]}}, {"type": "Feature", "properties": {"norad_id": 31449, "name": "FENGYUN 1C DEB", "group": "fengyun-1c-debris", "lat": -47.538050738262136, "lon": 53.29194690003297, "alt_km": 705.1787458386334, "timestamp": "2025-12-11T07:02:24.012895+00:00", "meta": {"OBJECT_NAME": "FENGYUN 1C DEB", "OBJECT_ID": "1999-025BUM", "EPOCH": "2025-12-10T21:12:43.511616", "MEAN_MOTION": 14.33705066, "ECCENTRICITY": 0.01440532, "INCLINATION": 98.5553, "RA_OF_ASC_NODE": 43.4188, "ARG_OF_PERICENTER": 274.279, "MEAN_ANOMALY": 84.1945, "EPHEMERIS_TYPE": 0, "CLASSIFICATION_TYPE": "U", "NORAD_CAT_ID": 31449, "ELEMENT_SET_NO": 999, "REV_AT_EPOCH": 97610, "BSTAR": 0.00033047687, "MEAN_MOTION_DOT": 9.81e-06, "MEAN_MOTION_DDOT": 0}, "tle": {"line1": "1 31449U 99025BUM 25344.88383694  .00000981  00000+0  33048-3 0  9991", "line2": "2 31449  98.5553  43.4188 0144053 274.2790  84.1945 14.33705066976103"}}, "geometry": {"type": "Point", "coordinates": [53.29194690003297, -47.538050738262136]}}, {"type": "Feature", "properties": {"norad_id": 31451, "name": "FENGYUN 1C DEB", "group": "fengyun-1c-debris", "lat": -6.36517347024285, "lon": -153.59103381034538, "alt_km": 831.1034888229642, "timestamp": "2025-12-11T07:02:24.012906+00:00", "meta": {"OBJECT_NAME": "FENGYUN 1C DEB", "OBJECT_ID": "1999-025BUP", "EPOCH": "2025-12-10T20:48:32.294016", "MEAN_MOTION": 14.13619047, "ECCENTRICITY": 0.00311221, "INCLINATION": 98.764, "RA_OF_ASC_NODE": 26.9773, "ARG_OF_PERICENTER": 216.9728, "MEAN_ANOMALY": 321.3199, "EPHEMERIS_TYPE": 0, "CLASSIFICATION_TYPE": "U", "NORAD_CAT_ID": 31451, "ELEMENT_SET_NO": 999, "REV_AT_EPOCH": 95983, "BSTAR": 0.00051459377, "MEAN_MOTION_DOT": 9.32e-06, "MEAN_MOTION_DDOT": 0}, "tle": {"line1": "1 31451U 99025BUP 25344.86704044  .00000932  00000+0  51459-3 0  9990", "line2": "2 31451  98.7640  26.9773 0031122 216.9728 321.3199 14.13619047959836"}}, "geometry": {"type": "Point", "coordinates": [-153.59103381034538, -6.36517347024285]}}, {"type": "Feature", "properties": {"norad_id": 31452, "name": "FENGYUN 1C DEB", "group": "fengyun-1c-debris", "lat": 73.07099828667498, "lon": -57.76093446363224, "alt_km": 818.409285316975, "timestamp": "2025-12-11T07:02:24.012916+00:00", "meta": {"OBJECT_NAME": "FENGYUN 1C DEB", "OBJECT_ID": "1999-025BUQ", "EPOCH": "2025-12-10T10:19:20.416224", "MEAN_MOTION": 14.1516278, "ECCENTRICITY": 0.0040701, "INCLINATION": 98.6579, "RA_OF_ASC_NODE": 331.44, "ARG_OF_PERICENTER": 134.3874, "MEAN_ANOMALY": 226.0645, "EPHEMERIS_TYPE": 0, "CLASSIFICATION_TYPE": "U", "NORAD_CAT_ID": 31452, "ELEMENT_SET_NO": 999, "REV_AT_EPOCH": 96173, "BSTAR": 0.00053376869, "MEAN_MOTION_DOT": 1.002e-05, "MEAN_MOTION_DDOT": 0}, "tle": {"line1": "1 31452U 99025BUQ 25344.43009741  .00001002  00000+0  53377-3 0  9996", "line2": "2 31452  98.6579 331.4400 0040701 134.3874 226.0645 14.15162780961734"}}, "geometry": {"type": "Point", "coordinates": [-57.76093446363224, 73.07099828667498]}}, {"type": "Feature", "properties": {"norad_id": 31455, "name": "FENGYUN 1C DEB", "group": "fengyun-1c-debris", "lat": 72.52269577016295, "lon": -55.04467292266695, "alt_km": 697.8701393326755, "timestamp": "2025-12-11T07:02:24.012926+00:00", "meta": {"OBJECT_NAME": "FENGYUN 1C DEB", "OBJECT_ID": "1999-025BUT", "EPOCH": "2025-12-10T22:11:38.880384", "MEAN_MOTION": 14.11425206, "ECCENTRICITY": 0.02187101, "INCLINATION": 98.5742, "RA_OF_ASC_NODE": 333.2336, "ARG_OF_PERICENTER": 56.422, "MEAN_ANOMALY": 305.7624, "EPHEMERIS_TYPE": 0, "CLASSIFICATION_TYPE": "U", "NORAD_CAT_ID": 31455, "ELEMENT_SET_NO": 999, "REV_AT_EPOCH": 96078, "BSTAR": 0.00038354371, "MEAN_MOTION_DOT": 8.28e-06, "MEAN_MOTION_DDOT": 0}, "tle": {"line1": "1 31455U 99025BUT 25344.92475556  .00000828  00000+0  38354-3 0  9997", "line2": "2 31455  98.5742 333.2336 0218710  56.4220 305.7624 14.11425206960789"}}, "geometry": {"type": "Point", "coordinates": [-55.04467292266695, 72.52269577016295]}}, {"type": "Feature", "properties": {"norad_id": 31456, "name": "FENGYUN 1C DEB", "group": "fengyun-1c-debris", "lat": -72.31136243313394, "lon": -120.61511397926387, "alt_km": 736.9182434768672, "timestamp": "2025-12-11T07:02:24.012936+00:00", "meta": {"OBJECT_NAME": "FENGYUN 1C DEB", "OBJECT_ID": "1999-025BUU", "EPOCH": "2025-12-08T12:55:41.925216", "MEAN_MOTION": 14.42364551, "ECCENTRICITY": 0.0067565, "INCLINATION": 98.5774, "RA_OF_ASC_NODE": 84.8613, "ARG_OF_PERICENTER": 327.2292, "MEAN_ANOMALY": 32.4714, "EPHEMERIS_TYPE": 0, "CLASSIFICATION_TYPE": "U", "NORAD_CAT_ID": 31456, "ELEMENT_SET_NO": 999, "REV_AT_EPOCH": 97406, "BSTAR": 0.0013396, "MEAN_MOTION_DOT": 4.506e-05, "MEAN_MOTION_DDOT": 0}, "tle": {"line1": "1 31456U 99025BUU 25342.53867969  .00004506  00000+0  13396-2 0  9991", "line2": "2 31456  98.5774  84.8613 0067565 327.2292  32.4714 14.42364551974069"}}, "geometry": {"type": "Point", "coordinates": [-120.61511397926387, -72.31136243313394]}}, {"type": "Feature", "properties": {"norad_id": 31459, "name": "FENGYUN 1C DEB", "group": "fengyun-1c-debris", "lat": -10.004184761588688, "lon": 72.1587284664124, "alt_km": 709.5345363340857, "timestamp": "2025-12-11T07:02:24.012946+00:00", "meta": {"OBJECT_NAME": "FENGYUN 1C DEB", "OBJECT_ID": "1999-025BUX", "EPOCH": "2025-12-08T23:17:29.370912", "MEAN_MOTION": 14.44022338, "ECCENTRICITY": 0.0093801, "INCLINATION": 98.1755, "RA_OF_ASC_NODE": 251.3793, "ARG_OF_PERICENTER": 143.1676, "MEAN_ANOMALY": 217.6008, "EPHEMERIS_TYPE": 0, "CLASSIFICATION_TYPE": "U", "NORAD_CAT_ID": 31459, "ELEMENT_SET_NO": 999, "REV_AT_EPOCH": 64503, "BSTAR": 0.0015164, "MEAN_MOTION_DOT": 5.43e-05, "MEAN_MOTION_DDOT": 0}, "tle": {"line1": "1 31459U 99025BUX 25342.97047883  .00005430  00000+0  15164-2 0  9999", "line2": "2 31459  98.1755 251.3793 0093801 143.1676 217.6008 14.44022338645031"}}, "geometry": {"type": "Point", "coordinates": [72.1587284664124, -10.004184761588688]}}]}